CCSDS_OMM_VERS = 2.0
CREATION_DATE  = 
ORIGINATOR     = 

OBJECT_NAME    = STARLINK-35661
OBJECT_ID      = 2025-257H
CENTER_NAME    = EARTH
REF_FRAME      = TEME
TIME_SYSTEM    = UTC
MEAN_ELEMENT_THEORY = SGP/SGP4

EPOCH          = 2025-11-28T00:00:02.000160
MEAN_MOTION    = 15.55267667
ECCENTRICITY   = .00011544
INCLINATION    = 53.1596
RA_OF_ASC_NODE = 334.3316
ARG_OF_PERICENTER = 94.1878
MEAN_ANOMALY   = 291.0779

EPHEMERIS_TYPE = 0
CLASSIFICATION_TYPE = U
NORAD_CAT_ID   = 66387
ELEMENT_SET_NO = 999
REV_AT_EPOCH   = 412
BSTAR          = -.32941972E-1
MEAN_MOTION_DOT = -.2028712E-1
MEAN_MOTION_DDOT = 0

CCSDS_OMM_VERS = 2.0
CREATION_DATE  = 
ORIGINATOR     = 

OBJECT_NAME    = STARLINK-35647
OBJECT_ID      = 2025-257J
CENTER_NAME    = EARTH
REF_FRAME      = TEME
TIME_SYSTEM    = UTC
MEAN_ELEMENT_THEORY = SGP/SGP4

EPOCH          = 2025-11-28T00:00:02.000160
MEAN_MOTION    = 15.55268787
ECCENTRICITY   = .00009542
INCLINATION    = 53.1598
RA_OF_ASC_NODE = 334.3270
ARG_OF_PERICENTER = 92.4534
MEAN_ANOMALY   = 294.7304

EPHEMERIS_TYPE = 0
CLASSIFICATION_TYPE = U
NORAD_CAT_ID   = 66388
ELEMENT_SET_NO = 999
REV_AT_EPOCH   = 412
BSTAR          = -.32968851E-1
MEAN_MOTION_DOT = -.2030148E-1
MEAN_MOTION_DDOT = 0

CCSDS_OMM_VERS = 2.0
CREATION_DATE  = 
ORIGINATOR     = 

OBJECT_NAME    = STARLINK-35694
OBJECT_ID      = 2025-257K
CENTER_NAME    = EARTH
REF_FRAME      = TEME
TIME_SYSTEM    = UTC
MEAN_ELEMENT_THEORY = SGP/SGP4

EPOCH          = 2025-11-28T00:00:02.000160
MEAN_MOTION    = 15.55267474
ECCENTRICITY   = .00011172
INCLINATION    = 53.1598
RA_OF_ASC_NODE = 334.3231
ARG_OF_PERICENTER = 92.9307
MEAN_ANOMALY   = 296.1691

EPHEMERIS_TYPE = 0
CLASSIFICATION_TYPE = U
NORAD_CAT_ID   = 66389
ELEMENT_SET_NO = 999
REV_AT_EPOCH   = 412
BSTAR          = -.32934081E-1
MEAN_MOTION_DOT = -.2028242E-1
MEAN_MOTION_DDOT = 0

CCSDS_OMM_VERS = 2.0
CREATION_DATE  = 
ORIGINATOR     = 

OBJECT_NAME    = STARLINK-35665
OBJECT_ID      = 2025-257L
CENTER_NAME    = EARTH
REF_FRAME      = TEME
TIME_SYSTEM    = UTC
MEAN_ELEMENT_THEORY = SGP/SGP4

EPOCH          = 2025-11-28T00:00:02.000160
MEAN_MOTION    = 15.55261413
ECCENTRICITY   = .00011578
INCLINATION    = 53.1594
RA_OF_ASC_NODE = 334.2511
ARG_OF_PERICENTER = 90.0045
MEAN_ANOMALY   = 333.6005

EPHEMERIS_TYPE = 0
CLASSIFICATION_TYPE = U
NORAD_CAT_ID   = 66390
ELEMENT_SET_NO = 999
REV_AT_EPOCH   = 422
BSTAR          = -.32732514E-1
MEAN_MOTION_DOT = -.2016757E-1
MEAN_MOTION_DDOT = 0

CCSDS_OMM_VERS = 2.0
CREATION_DATE  = 
ORIGINATOR     = 

OBJECT_NAME    = STARLINK-35656
OBJECT_ID      = 2025-257M
CENTER_NAME    = EARTH
REF_FRAME      = TEME
TIME_SYSTEM    = UTC
MEAN_ELEMENT_THEORY = SGP/SGP4

EPOCH          = 2025-11-28T00:00:02.000160
MEAN_MOTION    = 15.51988318
ECCENTRICITY   = .00012894
INCLINATION    = 53.1592
RA_OF_ASC_NODE = 333.9952
ARG_OF_PERICENTER = 85.5323
MEAN_ANOMALY   = 101.1936

EPHEMERIS_TYPE = 0
CLASSIFICATION_TYPE = U
NORAD_CAT_ID   = 66391
ELEMENT_SET_NO = 999
REV_AT_EPOCH   = 422
BSTAR          = -.36694636E-1
MEAN_MOTION_DOT = -.2006324E-1
MEAN_MOTION_DDOT = 0

CCSDS_OMM_VERS = 2.0
CREATION_DATE  = 
ORIGINATOR     = 

OBJECT_NAME    = STARLINK-35671
OBJECT_ID      = 2025-257N
CENTER_NAME    = EARTH
REF_FRAME      = TEME
TIME_SYSTEM    = UTC
MEAN_ELEMENT_THEORY = SGP/SGP4

EPOCH          = 2025-11-28T00:00:02.000160
MEAN_MOTION    = 15.55268259
ECCENTRICITY   = .00011901
INCLINATION    = 53.1596
RA_OF_ASC_NODE = 334.3150
ARG_OF_PERICENTER = 91.4283
MEAN_ANOMALY   = 301.5041

EPHEMERIS_TYPE = 0
CLASSIFICATION_TYPE = U
NORAD_CAT_ID   = 66392
ELEMENT_SET_NO = 999
REV_AT_EPOCH   = 412
BSTAR          = -.32951503E-1
MEAN_MOTION_DOT = -.2029299E-1
MEAN_MOTION_DDOT = 0

CCSDS_OMM_VERS = 2.0
CREATION_DATE  = 
ORIGINATOR     = 

OBJECT_NAME    = STARLINK-35652
OBJECT_ID      = 2025-257P
CENTER_NAME    = EARTH
REF_FRAME      = TEME
TIME_SYSTEM    = UTC
MEAN_ELEMENT_THEORY = SGP/SGP4

EPOCH          = 2025-11-28T00:00:02.000160
MEAN_MOTION    = 15.55266800
ECCENTRICITY   = .00012164
INCLINATION    = 53.1593
RA_OF_ASC_NODE = 334.3197
ARG_OF_PERICENTER = 80.7569
MEAN_ANOMALY   = 310.2583

EPHEMERIS_TYPE = 0
CLASSIFICATION_TYPE = U
NORAD_CAT_ID   = 66393
ELEMENT_SET_NO = 999
REV_AT_EPOCH   = 412
BSTAR          = -.32909119E-1
MEAN_MOTION_DOT = -.2026884E-1
MEAN_MOTION_DDOT = 0

CCSDS_OMM_VERS = 2.0
CREATION_DATE  = 
ORIGINATOR     = 

OBJECT_NAME    = STARLINK-35672
OBJECT_ID      = 2025-257Q
CENTER_NAME    = EARTH
REF_FRAME      = TEME
TIME_SYSTEM    = UTC
MEAN_ELEMENT_THEORY = SGP/SGP4

EPOCH          = 2025-11-28T00:00:02.000160
MEAN_MOTION    = 15.55265446
ECCENTRICITY   = .00010866
INCLINATION    = 53.1593
RA_OF_ASC_NODE = 334.3115
ARG_OF_PERICENTER = 93.8797
MEAN_ANOMALY   = 300.9722

EPHEMERIS_TYPE = 0
CLASSIFICATION_TYPE = U
NORAD_CAT_ID   = 66394
ELEMENT_SET_NO = 999
REV_AT_EPOCH   = 412
BSTAR          = -.32894375E-1
MEAN_MOTION_DOT = -.2025902E-1
MEAN_MOTION_DDOT = 0

CCSDS_OMM_VERS = 2.0
CREATION_DATE  = 
ORIGINATOR     = 

OBJECT_NAME    = STARLINK-35681
OBJECT_ID      = 2025-257R
CENTER_NAME    = EARTH
REF_FRAME      = TEME
TIME_SYSTEM    = UTC
MEAN_ELEMENT_THEORY = SGP/SGP4

EPOCH          = 2025-11-28T00:00:02.000160
MEAN_MOTION    = 15.55268523
ECCENTRICITY   = .00010769
INCLINATION    = 53.1594
RA_OF_ASC_NODE = 334.3083
ARG_OF_PERICENTER = 86.8033
MEAN_ANOMALY   = 309.9630

EPHEMERIS_TYPE = 0
CLASSIFICATION_TYPE = U
NORAD_CAT_ID   = 66395
ELEMENT_SET_NO = 999
REV_AT_EPOCH   = 396
BSTAR          = -.32953245E-1
MEAN_MOTION_DOT = -.2029345E-1
MEAN_MOTION_DDOT = 0

CCSDS_OMM_VERS = 2.0
CREATION_DATE  = 
ORIGINATOR     = 

OBJECT_NAME    = STARLINK-35669
OBJECT_ID      = 2025-257S
CENTER_NAME    = EARTH
REF_FRAME      = TEME
TIME_SYSTEM    = UTC
MEAN_ELEMENT_THEORY = SGP/SGP4

EPOCH          = 2025-11-28T00:00:02.000160
MEAN_MOTION    = 15.55266421
ECCENTRICITY   = .00010216
INCLINATION    = 53.1593
RA_OF_ASC_NODE = 334.3030
ARG_OF_PERICENTER = 88.9792
MEAN_ANOMALY   = 309.7052

EPHEMERIS_TYPE = 0
CLASSIFICATION_TYPE = U
NORAD_CAT_ID   = 66396
ELEMENT_SET_NO = 999
REV_AT_EPOCH   = 412
BSTAR          = -.32881597E-1
MEAN_MOTION_DOT = -.2025226E-1
MEAN_MOTION_DDOT = 0

CCSDS_OMM_VERS = 2.0
CREATION_DATE  = 
ORIGINATOR     = 

OBJECT_NAME    = STARLINK-35510
OBJECT_ID      = 2025-257T
CENTER_NAME    = EARTH
REF_FRAME      = TEME
TIME_SYSTEM    = UTC
MEAN_ELEMENT_THEORY = SGP/SGP4

EPOCH          = 2025-11-28T00:00:02.000160
MEAN_MOTION    = 15.55265098
ECCENTRICITY   = .00011699
INCLINATION    = 53.1597
RA_OF_ASC_NODE = 334.2986
ARG_OF_PERICENTER = 91.0631
MEAN_ANOMALY   = 309.5386

EPHEMERIS_TYPE = 0
CLASSIFICATION_TYPE = U
NORAD_CAT_ID   = 66397
ELEMENT_SET_NO = 999
REV_AT_EPOCH   = 412
BSTAR          = -.32873504E-1
MEAN_MOTION_DOT = -.2024779E-1
MEAN_MOTION_DDOT = 0

CCSDS_OMM_VERS = 2.0
CREATION_DATE  = 
ORIGINATOR     = 

OBJECT_NAME    = STARLINK-35642
OBJECT_ID      = 2025-257U
CENTER_NAME    = EARTH
REF_FRAME      = TEME
TIME_SYSTEM    = UTC
MEAN_ELEMENT_THEORY = SGP/SGP4

EPOCH          = 2025-11-28T00:00:02.000160
MEAN_MOTION    = 15.55270559
ECCENTRICITY   = .00010609
INCLINATION    = 53.1593
RA_OF_ASC_NODE = 334.2955
ARG_OF_PERICENTER = 85.7982
MEAN_ANOMALY   = 316.7168

EPHEMERIS_TYPE = 0
CLASSIFICATION_TYPE = U
NORAD_CAT_ID   = 66398
ELEMENT_SET_NO = 999
REV_AT_EPOCH   = 412
BSTAR          = -.32979627E-1
MEAN_MOTION_DOT = -.2030925E-1
MEAN_MOTION_DDOT = 0

