STARLINK-35661          
1 66387U 25257H   25332.00002315 -.02028712  00000+0 -32942-1 0  9991
2 66387  53.1596 334.3316 0001154  94.1878 291.0779 15.55267667  4124
STARLINK-35647          
1 66388U 25257J   25332.00002315 -.02030148  00000+0 -32969-1 0  9997
2 66388  53.1598 334.3270 0000954  92.4534 294.7304 15.55268787  4121
STARLINK-35694          
1 66389U 25257K   25332.00002315 -.02028242  00000+0 -32934-1 0  9992
2 66389  53.1598 334.3231 0001117  92.9307 296.1691 15.55267474  4121
STARLINK-35665          
1 66390U 25257L   25332.00002315 -.02016757  00000+0 -32733-1 0  9999
2 66390  53.1594 334.2511 0001157  90.0045 333.6005 15.55261413  4225
STARLINK-35656          
1 66391U 25257M   25332.00002315 -.02006324  00000+0 -36695-1 0  9990
2 66391  53.1592 333.9952 0001289  85.5323 101.1936 15.51988318  4220
STARLINK-35671          
1 66392U 25257N   25332.00002315 -.02029299  00000+0 -32952-1 0  9999
2 66392  53.1596 334.3150 0001190  91.4283 301.5041 15.55268259  4123
STARLINK-35652          
1 66393U 25257P   25332.00002315 -.02026884  00000+0 -32909-1 0  9999
2 66393  53.1593 334.3197 0001216  80.7569 310.2583 15.55266800  4127
STARLINK-35672          
1 66394U 25257Q   25332.00002315 -.02025902  00000+0 -32894-1 0  9993
2 66394  53.1593 334.3115 0001086  93.8797 300.9722 15.55265446  4127
STARLINK-35681          
1 66395U 25257R   25332.00002315 -.02029345  00000+0 -32953-1 0  9995
2 66395  53.1594 334.3083 0001076  86.8033 309.9630 15.55268523  3964
STARLINK-35669          
1 66396U 25257S   25332.00002315 -.02025226  00000+0 -32882-1 0  9991
2 66396  53.1593 334.3030 0001021  88.9792 309.7052 15.55266421  4121
STARLINK-35510          
1 66397U 25257T   25332.00002315 -.02024779  00000+0 -32874-1 0  9995
2 66397  53.1597 334.2986 0001169  91.0631 309.5386 15.55265098  4122
STARLINK-35642          
1 66398U 25257U   25332.00002315 -.02030925  00000+0 -32980-1 0  9994
2 66398  53.1593 334.2955 0001060  85.7982 316.7168 15.55270559  4120
